{"type": "FeatureCollection", "features": [ {"type": "Feature", "properties": {"norad_id": 66609, "name": "STARLINK-36034", "group": "last-30-days", "lat": 41.429943626558305, "lon": -46.24876429379223, "alt_km": 408.7068096051171, "timestamp": "2025-12-10T14:53:35.947185+00:00", "meta": {"OBJECT_NAME": "STARLINK-36034", "OBJECT_ID": "2025-270X", "EPOCH": "2025-12-10T06:00:02.000160", "MEAN_MOTION": 15.52666445, "ECCENTRICITY": 0.00014825, "INCLINATION": 43.0002, "RA_OF_ASC_NODE": 207.201, "ARG_OF_PERICENTER": 252.8282, "MEAN_ANOMALY": 298.663, "EPHEMERIS_TYPE": 0, "CLASSIFICATION_TYPE": "U", "NORAD_CAT_ID": 66609, "ELEMENT_SET_NO": 999, "REV_AT_EPOCH": 384, "BSTAR": -0.038748189, "MEAN_MOTION_DOT": -0.02168372, "MEAN_MOTION_DDOT": 0}, "tle": {"line1": "1 66609U 25270X   25344.25002315 -.02168372  00000+0 -38748-1 0  9990", "line2": "2 66609  43.0002 207.2010 0001482 252.8282 298.6630 15.52666445  3847"}}, "geometry": {"type": "Point", "coordinates": [-46.24876429379223, 41.429943626558305]}}, {"type": "Feature", "properties": {"norad_id": 66610, "name": "STARLINK-35680", "group": "last-30-days", "lat": 40.98203600770562, "lon": -43.76842215878588, "alt_km": 408.7548072763648, "timestamp": "2025-12-10T14:53:35.947193+00:00", "meta": {"OBJECT_NAME": "STARLINK-35680", "OBJECT_ID": "2025-270Y", "EPOCH": "2025-12-10T06:00:02.000160", "MEAN_MOTION": 15.52671646, "ECCENTRICITY": 0.00014156, "INCLINATION": 42.9999, "RA_OF_ASC_NODE": 207.1957, "ARG_OF_PERICENTER": 256.7314, "MEAN_ANOMALY": 296.6739, "EPHEMERIS_TYPE": 0, "CLASSIFICATION_TYPE": "U", "NORAD_CAT_ID": 66610, "ELEMENT_SET_NO": 999, "REV_AT_EPOCH": 410, "BSTAR": -0.038808019, "MEAN_MOTION_DOT": -0.02171652, "MEAN_MOTION_DDOT": 0}, "tle": {"line1": "1 66610U 25270Y   25344.25002315 -.02171652  00000+0 -38808-1 0  9994", "line2": "2 66610  42.9999 207.1957 0001415 256.7314 296.6739 15.52671646  4103"}}, "geometry": {"type": "Point", "coordinates": [-43.76842215878588, 40.98203600770562]}}, {"type": "Feature", "properties": {"norad_id": 66611, "name": "STARLINK-35583", "group": "last-30-days", "lat": 40.482665317328525, "lon": -41.32773532373855, "alt_km": 408.77593831964987, "timestamp": "2025-12-10T14:53:35.947203+00:00", "meta": {"OBJECT_NAME": "STARLINK-35583", "OBJECT_ID": "2025-270Z", "EPOCH": "2025-12-10T06:00:02.000160", "MEAN_MOTION": 15.52671279, "ECCENTRICITY": 0.00013664, "INCLINATION": 42.9998, "RA_OF_ASC_NODE": 207.1907, "ARG_OF_PERICENTER": 255.896, "MEAN_ANOMALY": 299.4272, "EPHEMERIS_TYPE": 0, "CLASSIFICATION_TYPE": "U", "NORAD_CAT_ID": 66611, "ELEMENT_SET_NO": 999, "REV_AT_EPOCH": 410, "BSTAR": -0.038813334, "MEAN_MOTION_DOT": -0.02171855, "MEAN_MOTION_DDOT": 0}, "tle": {"line1": "1 66611U 25270Z   25344.25002315 -.02171855  00000+0 -38813-1 0  9996", "line2": "2 66611  42.9998 207.1907 0001366 255.8960 299.4272 15.52671279  4105"}}, "geometry": {"type": "Point", "coordinates": [-41.32773532373855, 40.482665317328525]}}, {"type": "Feature", "properties": {"norad_id": 66612, "name": "STARLINK-36039", "group": "last-30-days", "lat": 39.933813568246734, "lon": -38.92995646585997, "alt_km": 408.9187152696186, "timestamp": "2025-12-10T14:53:35.947212+00:00", "meta": {"OBJECT_NAME": "STARLINK-36039", "OBJECT_ID": "2025-270AA", "EPOCH": "2025-12-10T06:00:02.000160", "MEAN_MOTION": 15.52665755, "ECCENTRICITY": 0.00015486, "INCLINATION": 42.9999, "RA_OF_ASC_NODE": 207.1852, "ARG_OF_PERICENTER": 253.6222, "MEAN_ANOMALY": 303.6212, "EPHEMERIS_TYPE": 0, "CLASSIFICATION_TYPE": "U", "NORAD_CAT_ID": 66612, "ELEMENT_SET_NO": 999, "REV_AT_EPOCH": 400, "BSTAR": -0.038725903, "MEAN_MOTION_DOT": -0.02167267, "MEAN_MOTION_DDOT": 0}, "tle": {"line1": "1 66612U 25270AA  25344.25002315 -.02167267  00000+0 -38726-1 0  9992", "line2": "2 66612  42.9999 207.1852 0001548 253.6222 303.6212 15.52665755  4008"}}, "geometry": {"type": "Point", "coordinates": [-38.92995646585997, 39.933813568246734]}}, {"type": "Feature", "properties": {"norad_id": 66613, "name": "STARLINK-36037", "group": "last-30-days", "lat": 39.33403002319516, "lon": -36.56336994284693, "alt_km": 408.93931119749504, "timestamp": "2025-12-10T14:53:35.947221+00:00", "meta": {"OBJECT_NAME": "STARLINK-36037", "OBJECT_ID": "2025-270AB", "EPOCH": "2025-12-10T06:00:02.000160", "MEAN_MOTION": 15.52670742, "ECCENTRICITY": 0.0001415, "INCLINATION": 42.9999, "RA_OF_ASC_NODE": 207.1808, "ARG_OF_PERICENTER": 255.6845, "MEAN_ANOMALY": 303.4732, "EPHEMERIS_TYPE": 0, "CLASSIFICATION_TYPE": "U", "NORAD_CAT_ID": 66613, "ELEMENT_SET_NO": 999, "REV_AT_EPOCH": 400, "BSTAR": -0.038807579, "MEAN_MOTION_DOT": -0.02171566, "MEAN_MOTION_DDOT": 0}, "tle": {"line1": "1 66613U 25270AB  25344.25002315 -.02171566  00000+0 -38808-1 0  9991", "line2": "2 66613  42.9999 207.1808 0001415 255.6845 303.4732 15.52670742  4003"}}, "geometry": {"type": "Point", "coordinates": [-36.56336994284693, 39.33403002319516]}}, {"type": "Feature", "properties": {"norad_id": 66614, "name": "STARLINK-36040", "group": "last-30-days", "lat": 37.99679355482798, "lon": -31.965342770347043, "alt_km": 409.0812372397568, "timestamp": "2025-12-10T14:53:35.947231+00:00", "meta": {"OBJECT_NAME": "STARLINK-36040", "OBJECT_ID": "2025-270AC", "EPOCH": "2025-12-10T06:00:02.000160", "MEAN_MOTION": 15.52671784, "ECCENTRICITY": 0.00013915, "INCLINATION": 42.9998, "RA_OF_ASC_NODE": 207.1711, "ARG_OF_PERICENTER": 255.0617, "MEAN_ANOMALY": 307.9294, "EPHEMERIS_TYPE": 0, "CLASSIFICATION_TYPE": "U", "NORAD_CAT_ID": 66614, "ELEMENT_SET_NO": 999, "REV_AT_EPOCH": 384, "BSTAR": -0.038841143, "MEAN_MOTION_DOT": -0.02173284, "MEAN_MOTION_DDOT": 0}, "tle": {"line1": "1 66614U 25270AC  25344.25002315 -.02173284  00000+0 -38841-1 0  9998", "line2": "2 66614  42.9998 207.1711 0001391 255.0617 307.9294 15.52671784  3840"}}, "geometry": {"type": "Point", "coordinates": [-31.965342770347043, 37.99679355482798]}}, {"type": "Feature", "properties": {"norad_id": 66615, "name": "STARLINK-35988", "group": "last-30-days", "lat": 38.68660127206256, "lon": -34.23749432883255, "alt_km": 408.94777678725677, "timestamp": "2025-12-10T14:53:35.947240+00:00", "meta": {"OBJECT_NAME": "STARLINK-35988", "OBJECT_ID": "2025-270AD", "EPOCH": "2025-12-10T06:00:02.000160", "MEAN_MOTION": 15.52716791, "ECCENTRICITY": 0.00013861, "INCLINATION": 42.9999, "RA_OF_ASC_NODE": 207.1763, "ARG_OF_PERICENTER": 248.8303, "MEAN_ANOMALY": 312.2294, "EPHEMERIS_TYPE": 0, "CLASSIFICATION_TYPE": "U", "NORAD_CAT_ID": 66615, "ELEMENT_SET_NO": 999, "REV_AT_EPOCH": 384, "BSTAR": -0.04009569, "MEAN_MOTION_DOT": -0.02238328, "MEAN_MOTION_DDOT": 0}, "tle": {"line1": "1 66615U 25270AD  25344.25002315 -.02238328  00000+0 -40096-1 0  9995", "line2": "2 66615  42.9999 207.1763 0001386 248.8303 312.2294 15.52716791  3842"}}, "geometry": {"type": "Point", "coordinates": [-34.23749432883255, 38.68660127206256]}}, {"type": "Feature", "properties": {"norad_id": 66616, "name": "STARLINK-35391", "group": "last-30-days", "lat": 37.261399934469466, "lon": -29.728914468067273, "alt_km": 409.19836251410106, "timestamp": "2025-12-10T14:53:35.947249+00:00", "meta": {"OBJECT_NAME": "STARLINK-35391", "OBJECT_ID": "2025-270AE", "EPOCH": "2025-12-10T06:00:02.000160", "MEAN_MOTION": 15.52680503, "ECCENTRICITY": 0.00014442, "INCLINATION": 42.9997, "RA_OF_ASC_NODE": 207.1666, "ARG_OF_PERICENTER": 254.632, "MEAN_ANOMALY": 310.2739, "EPHEMERIS_TYPE": 0, "CLASSIFICATION_TYPE": "U", "NORAD_CAT_ID": 66616, "ELEMENT_SET_NO": 999, "REV_AT_EPOCH": 410, "BSTAR": -0.039056381, "MEAN_MOTION_DOT": -0.02184576, "MEAN_MOTION_DDOT": 0}, "tle": {"line1": "1 66616U 25270AE  25344.25002315 -.02184576  00000+0 -39056-1 0  9995", "line2": "2 66616  42.9997 207.1666 0001444 254.6320 310.2739 15.52680503  4105"}}, "geometry": {"type": "Point", "coordinates": [-29.728914468067273, 37.261399934469466]}}, {"type": "Feature", "properties": {"norad_id": 66617, "name": "STARLINK-35940", "group": "last-30-days", "lat": 51.35700202948771, "lon": -52.22956489647303, "alt_km": 382.51677703229143, "timestamp": "2025-12-10T14:53:35.947260+00:00", "meta": {"OBJECT_NAME": "STARLINK-35940", "OBJECT_ID": "2025-271A", "EPOCH": "2025-12-10T06:00:02.000160", "MEAN_MOTION": 15.60822313, "ECCENTRICITY": 0.00011366, "INCLINATION": 53.1598, "RA_OF_ASC_NODE": 199.2445, "ARG_OF_PERICENTER": 92.4781, "MEAN_ANOMALY": 87.9546, "EPHEMERIS_TYPE": 0, "CLASSIFICATION_TYPE": "U", "NORAD_CAT_ID": 66617, "ELEMENT_SET_NO": 999, "REV_AT_EPOCH": 384, "BSTAR": -0.027396113, "MEAN_MOTION_DOT": -0.02038637, "MEAN_MOTION_DDOT": 0}, "tle": {"line1": "1 66617U 25271A   25344.25002315 -.02038637  00000+0 -27396-1 0  9997", "line2": "2 66617  53.1598 199.2445 0001136  92.4781  87.9546 15.60822313  3840"}}, "geometry": {"type": "Point", "coordinates": [-52.22956489647303, 51.35700202948771]}}, {"type": "Feature", "properties": {"norad_id": 66618, "name": "STARLINK-35970", "group": "last-30-days", "lat": 19.047822454698103, "lon": 2.3287103014372135, "alt_km": 387.9591347138967, "timestamp": "2025-12-10T14:53:35.947271+00:00", "meta": {"OBJECT_NAME": "STARLINK-35970", "OBJECT_ID": "2025-271B", "EPOCH": "2025-12-10T06:00:02.000160", "MEAN_MOTION": 15.6082211, "ECCENTRICITY": 0.00010495, "INCLINATION": 53.1596, "RA_OF_ASC_NODE": 199.1316, "ARG_OF_PERICENTER": 101.4249, "MEAN_ANOMALY": 132.3281, "EPHEMERIS_TYPE": 0, "CLASSIFICATION_TYPE": "U", "NORAD_CAT_ID": 66618, "ELEMENT_SET_NO": 999, "REV_AT_EPOCH": 384, "BSTAR": -0.027363064, "MEAN_MOTION_DOT": -0.0203641, "MEAN_MOTION_DDOT": 0}, "tle": {"line1": "1 66618U 25271B   25344.25002315 -.02036410  00000+0 -27363-1 0  9999", "line2": "2 66618  53.1596 199.1316 0001049 101.4249 132.3281 15.60822110  3844"}}, "geometry": {"type": "Point", "coordinates": [2.3287103014372135, 19.047822454698103]}}]}